HODOYOSHI-4             
1 40011U 14033B   26177.78382458  .00001421  00000+0  15937-3 0  9990
2 40011  97.5454   2.1432 0022103 274.5794  85.2899 14.88147235650230
DEIMOS-2                
1 40013U 14033D   26177.69541780  .00000986  00000+0  98198-4 0  9993
2 40013  97.5829  51.8503 0001220  55.1679 304.9656 14.93750188639142
HODOYOSHI-3             
1 40015U 14033F   26177.41379235  .00001036  00000+0  12537-3 0  9998
2 40015  97.6425 340.0832 0031920 326.3944  33.5247 14.85405990648996
SPOT 7                  
1 40053U 14034A   26177.77001812  .00000796  00000+0  17168-3 0  9990
2 40053  98.0629 240.0149 0001339  92.6044 267.5310 14.60967329638535
SKYSAT-B                
1 40072U 14037D   26177.47195454  .00001181  00000+0  13518-3 0  9991
2 40072  98.3842 136.9663 0004258 241.5149 118.5637 14.88049121647341
WORLDVIEW-3 (WV-3)      
1 40115U 14048A   26177.73532816  .00000772  00000+0  96633-4 0  9992
2 40115  97.8564 252.4364 0000211  21.1310 338.9914 14.85036214643329
GAOFEN-2                
1 40118U 14049A   26177.77093118  .00000585  00000+0  82644-4 0  9996
2 40118  98.0109 241.9691 0006736 191.6881 168.4176 14.80908399640656
YAOGAN-21               
1 40143U 14053A   26177.73356243  .00007744  00000+0  29884-3 0  9996
2 40143  97.1472 217.5597 0009628  65.7995 294.4249 15.26507781656414
YAOGAN-22               
1 40275U 14063A   26177.69207036 -.00000025  00000+0  58005-4 0  9997
2 40275 100.7735 329.1235 0006556 164.3467 195.7847 13.15531185561063
ASNARO                  
1 40298U 14070A   26177.77389714  .00008688  00000+0  41118-3 0  9991
2 40298  97.3449 253.6292 0006305 136.1501 224.0236 15.19569913645464
YAOGAN-24               
1 40310U 14072A   26177.63936789  .00000579  00000+0  91593-4 0  9997
2 40310  98.1495 315.0578 0013290 231.5884 128.4133 14.76096616625114
CBERS 4                 
1 40336U 14079A   26177.72577473  .00000173  00000+0  74773-4 0  9994
2 40336  98.3532 234.2583 0001567  53.6027 306.5304 14.35511659605324
YAOGAN-26               
1 40362U 14088A   26177.76821462  .00017876  00000+0  34665-3 0  9990
2 40362  97.0640 177.7542 0004897  44.5760 315.5885 15.47719131639181
SMAP                    
1 40376U 15003A   26177.72093409  .00000395  00000+0  85533-4 0  9990
2 40376  98.1276 184.6804 0001431  98.3401 261.7964 14.63374195609014
KOMPSAT-3A              
1 40536U 15014A   26177.77072968  .00028027  00000+0  39772-3 0  9997
2 40536  97.6882 169.8361 0057111 140.2875 220.2581 15.54447551623301
SENTINEL-2A             
1 40697U 15028A   26177.72518682  .00000323  00000+0  13968-3 0  9991
2 40697  98.5684 252.4417 0001160  91.3719 268.7596 14.30818717575090
GAOFEN-8                
1 40701U 15030A   26177.79586360  .00027588  00000+0  55956-3 0  9990
2 40701  97.6907  11.7444 0009480 153.5940 206.5794 15.46301054612934
CARBONITE 1 (CBNT-1)    
1 40718U 15032D   26177.75971498  .00001683  00000+0  21001-3 0  9998
2 40718  97.6510 355.4257 0012934 263.3673  96.6069 14.83613669590760
YAOGAN-27               
1 40878U 15040A   26177.75922493 -.00000104  00000+0 -16180-3 0  9996
2 40878 100.1153 163.7264 0007975 187.2013 172.8988 13.16070988518920
GAOFEN-9 01             
1 40894U 15047A   26177.71185169  .00000938  00000+0  12117-3 0  9997
2 40894  97.6271 212.9737 0028845 107.9907 252.4455 14.82900836581608
YAOGAN-28               
1 41026U 15064A   26177.69066899  .00006386  00000+0  23937-3 0  9994
2 41026  97.3080 315.7594 0011449 151.1257 209.0618 15.27534330592136
YAOGAN-29               
1 41038U 15069A   26177.75825862  .00000211  00000+0  32501-4 0  9991
2 41038  98.0028 206.4059 0002122  38.0706 322.0657 14.83090861572045
KENT RIDGE 1            
1 41167U 15077B   26177.39678528  .00004082  00000+0  13611-3 0  9998
2 41167  14.9781 197.4940 0008186   8.5301 351.5159 15.23182390582508
GAOFEN-4                
1 41194U 15083A   26176.90227766 -.00000324  00000+0  00000+0 0  9995
2 41194   0.3805  83.9226 0004051 113.8387 146.7998  1.00271078 38616
JASON-3                 
1 41240U 16002A   26177.71147885 -.00000072  00000+0 -38875-4 0  9999
2 41240  66.0415 105.8124 0008404 272.3956  87.6101 12.87622995488471
SENTINEL-3A             
1 41335U 16011A   26177.75423110  .00000085  00000+0  53149-4 0  9999
2 41335  98.6246 245.0004 0001437  96.8596 263.2748 14.26735047539420
ZIYUAN 3-02 (ZY 3-02)   
1 41556U 16033A   26177.72744721  .00005017  00000+0  22715-3 0  9993
2 41556  97.3839 253.3181 0012483 253.7984 106.1878 15.21264993559430
CARTOSAT-2C             
1 41599U 16040A   26177.74269604  .00005258  00000+0  25227-3 0  9990
2 41599  97.4484 237.5892 0010541 101.9957 258.2459 15.19264713555161
SKYSAT-C1               
1 41601U 16040C   26177.00907460  .00010408  00000+0  29478-3 0  9997
2 41601  96.9565 208.2510 0002628  39.9712 320.1726 15.36441709559225
LAPAN-A3                
1 41603U 16040E   26177.72033473  .00003898  00000+0  12386-3 0  9997
2 41603  97.1487 173.5528 0009663 352.5383   7.5714 15.33163675556275
GAOFEN-3                
1 41727U 16049A   26177.72751938 -.00000064  00000+0 -62282-5 0  9992
2 41727  98.4013 185.3694 0001589  97.0306 263.1064 14.42216023520028
